ONEWEB-0512             
1 54130U 22138T   25040.49917935  .00000090  00000+0  19200-3 0  9990
2 54130  87.9156  42.9219 0001874 104.2442 255.8899 13.19725026111820
ONEWEB-0513             
1 54131U 22138U   25040.54578043  .00000042  00000+0  73209-4 0  9997
2 54131  87.9153  42.9014 0001615 106.9623 253.1687 13.19724291111711
ONEWEB-0514             
1 54132U 22138V   25040.74241887  .00000011  00000+0 -44973-5 0  9997
2 54132  87.9150  42.8488 0001803  88.1860 271.9479 13.19723429112749
ONEWEB-0515             
1 54133U 22138W   25040.39669690  .00000102  00000+0  21774-3 0  9997
2 54133  87.9284  12.4593 0002620  67.9709 292.1703 13.20770274114258
ONEWEB-0516             
1 54134U 22138X   25040.56552545  .00000149  00000+0  33937-3 0  9992
2 54134  87.9155  42.9110 0002003  92.4531 267.6831 13.19725842111851
ONEWEB-0517             
1 54135U 22138Y   25040.54498359  .00000080  00000+0  16779-3 0  9992
2 54135  87.9148  42.8837 0001458  90.2395 269.8905 13.19725829111857
ONEWEB-0518             
1 54136U 22138Z   25040.56394082  .00000102  00000+0  22347-3 0  9996
2 54136  87.9155  42.9076 0001758  91.0723 269.0611 13.19725473111850
ONEWEB-0519             
1 54137U 22138AA  25040.74084665  .00000079  00000+0  16462-3 0  9994
2 54137  87.9148  42.8382 0001551  90.6429 269.4881 13.19724797112752
